[{"OBJECT_NAME":"STARLINK-35309","OBJECT_ID":"2025-253E","EPOCH":"2026-03-09T10:45:53.013600","MEAN_MOTION":15.27587607,"ECCENTRICITY":0.00019412,"INCLINATION":43.0018,"RA_OF_ASC_NODE":214.2055,"ARG_OF_PERICENTER":253.3362,"MEAN_ANOMALY":106.7276,"EPHEMERIS_TYPE":0,"CLASSIFICATION_TYPE":"U","NORAD_CAT_ID":66323,"ELEMENT_SET_NO":999,"REV_AT_EPOCH":2020,"BSTAR":0.0010573548,"MEAN_MOTION_DOT":0.00028955,"MEAN_MOTION_DDOT":0},{"OBJECT_NAME":"FENGYUN 1C DEB","OBJECT_ID":"1999-025CMP","EPOCH":"2026-03-08T08:37:00.789888","MEAN_MOTION":14.96815474,"ECCENTRICITY":0.01497126,"INCLINATION":98.9176,"RA_OF_ASC_NODE":115.7276,"ARG_OF_PERICENTER":148.4975,"MEAN_ANOMALY":212.5316,"EPHEMERIS_TYPE":0,"CLASSIFICATION_TYPE":"U","NORAD_CAT_ID":31938,"ELEMENT_SET_NO":999,"REV_AT_EPOCH":409,"BSTAR":0.00073670691,"MEAN_MOTION_DOT":0.00010536,"MEAN_MOTION_DDOT":0}]
